COMMENT,ORIGINATOR,NORAD_CAT_ID,OBJECT_NAME,OBJECT_TYPE,CLASSIFICATION_TYPE,INTLDES,EPOCH,EPOCH_MICROSECONDS,MEAN_MOTION,ECCENTRICITY,INCLINATION,RA_OF_ASC_NODE,ARG_OF_PERICENTER,MEAN_ANOMALY,EPHEMERIS_TYPE,ELEMENT_SET_NO,REV_AT_EPOCH,BSTAR,MEAN_MOTION_DOT,MEAN_MOTION_DDOT,FILE,TLE_LINE0,TLE_LINE1,TLE_LINE2,OBJECT_ID,OBJECT_NUMBER,SEMIMAJOR_AXIS,PERIOD,APOGEE,PERIGEE
"GENERATED VIA SPACETRACK.ORG API","JSPOC","27499","EUTE 8 WEST C (HB 6)","PAYLOAD","U","02038A","2016-01-13 14:17:29","123808","1.00277117","0.0003258","0.0912","299.2157","65.549","355.2272","0","999","1311","0","1.53e-06","0","1980270","0 EUTE 8 WEST C (HB 6)","1 27499U 02038A   16013.59547597 +.00000153 +00000-0 +00000-0 0  9995","2 27499 000.0912 299.2157 0003258 065.5490 355.2272 01.00277117013115","2002-038A","27499","42163.237","1436.020","35798.839","35771.365"
"GENERATED VIA SPACETRACK.ORG API","JSPOC","7411","OPS 6983 (DMSP 5C F1)","PAYLOAD","U","74063A","2016-01-13 14:17:43","904256","14.27603421","0.0041546","98.7156","194.8338","345.0493","14.9456","0","999","15112","7.8236e-05","1.5e-06","0","1979968","0 OPS 6983 (DMSP 5C F1)","1 07411U 74063A   16013.59564704  .00000150  00000-0  78236-4 0  9990","2 07411  98.7156 194.8338 0041546 345.0493  14.9456 14.27603421151124","1974-063A","7411","7177.889","100.868","829.576","769.933"
"GENERATED VIA SPACETRACK.ORG API","JSPOC","716","TIROS 8","PAYLOAD","U","63054A","2016-01-13 14:18:05","662368","14.69204736","0.0028339","58.4957","36.9409","49.1819","311.1669","0","999","77686","4.9174e-05","1.07e-06","0","1979951","0 TIROS 8","1 00716U 63054A   16013.59589887  .00000107  00000-0  49174-4 0  9999","2 00716  58.4957  36.9409 0028339  49.1819 311.1669 14.69204736776865","1963-054A","716","7041.745","98.012","683.565","643.654"
"GENERATED VIA SPACETRACK.ORG API","JSPOC","36131","DIRECTV 12","PAYLOAD","U","09075A","2016-01-13 14:18:42","882624","1.00268334","3.13e-05","0.0126","190.0521","83.7442","310.5908","0","999","2220","0","-1.06e-06","0","1979892","0 DIRECTV 12","1 36131U 09075A   16013.59632966 -.00000106  00000-0  00000+0 0  9999","2 36131   0.0126 190.0521 0000313  83.7442 310.5908  1.00268334 22207","2009-075A","36131","42165.699","1436.146","35788.884","35786.244"
"GENERATED VIA SPACETRACK.ORG API","JSPOC","28644","SPACEWAY 1","PAYLOAD","U","05015A","2016-01-13 14:18:42","943104","1.00268164","4.46e-05","0.0123","194.9431","5.1339","24.1857","0","999","841","0","-1.04e-06","0","1980270","0 SPACEWAY 1","1 28644U 05015A   16013.59633036 -.00000104 +00000-0 +00000-0 0  9997","2 28644 000.0123 194.9431 0000446 005.1339 024.1857 01.00268164008416","2005-015A","28644","42165.747","1436.148","35789.492","35785.731"
"GENERATED VIA SPACETRACK.ORG API","JSPOC","37748","SES 3","PAYLOAD","U","11035A","2016-01-13 14:18:42","886944","1.00268921","0.0002348","0.0548","280.0949","9.3907","294.6659","0","999","1643","0","-1.04e-06","0","1980270","0 SES 3","1 37748U 11035A   16013.59632971 -.00000104 +00000-0 +00000-0 0  9998","2 37748 000.0548 280.0949 0002348 009.3907 294.6659 01.00268921016439","2011-035A","37748","42165.534","1436.137","35797.300","35777.499"
"GENERATED VIA SPACETRACK.ORG API","JSPOC","27516","DRTS","PAYLOAD","U","02042B","2016-01-13 14:19:00","191136","1.0027168","0.0003002","4.0906","65.2117","246.7809","106.0045","0","999","772","0","-2.43e-06","0","1980270","0 DRTS","1 27516U 02042B   16013.59652999 -.00000243 +00000-0 +00000-0 0  9994","2 27516 004.0906 065.2117 0003002 246.7809 106.0045 01.00271680007722","2002-042B","27516","42164.761","1436.098","35799.284","35773.968"
"GENERATED VIA SPACETRACK.ORG API","JSPOC","35637","SL-8 R/B","ROCKET BODY","U","09039C","2016-01-13 14:19:11","426592","13.91216014","0.0015081","82.9538","27.9234","318.643","191.3291","0","999","12701","-8.0771e-06","6e-08","0","1980270","0 SL-8 R/B","1 35637U 09039C   16013.59666003 +.00000006 +00000-0 -80771-5 0  9996","2 35637 082.9538 027.9234 0015081 318.6430 191.3291 13.91216014127013","2009-039C","35637","7302.509","103.506","935.387","913.361"
"GENERATED VIA SPACETRACK.ORG API","JSPOC","20945","SATCOM C1","PAYLOAD","U","90100A","2016-01-13 14:19:13","492416","0.99180911","0.0010044","9.6637","42.7414","279.5247","95.0355","0","999","8922","0","-4.2e-07","0","1980270","0 SATCOM C1","1 20945U 90100A   16013.59668394 -.00000042 +00000-0 +00000-0 0  9998","2 20945 009.6637 042.7414 0010044 279.5247 095.0355 00.99180911089226","1990-100A","20945","42473.343","1451.892","36137.868","36052.547"
"GENERATED VIA SPACETRACK.ORG API","JSPOC","13970","IUS R/B(2)","ROCKET BODY","U","83026C","2016-01-13 14:19:26","492160","1.32156732","0.1873102","1.8184","340.5824","153.1461","302.9768","0","999","15823","0","-1.03e-06","0","1980270","0 IUS R/B(2)","1 13970U 83026C   16013.59683440 -.00000103 +00000-0 +00000-0 0  9994","2 13970 001.8184 340.5824 1873102 153.1461 302.9768 01.32156732158237","1983-026C","13970","35075.912","1089.615","35267.853","22127.701"
"GENERATED VIA SPACETRACK.ORG API","JSPOC","28473","ATLAS 5 CENTAUR R/B","ROCKET BODY","U","04048B","2016-01-13 14:19:31","975104","2.06079941","0.574385","17.6254","197.2438","61.3448","345.1203","0","999","8336","0","1.27e-06","0","1979915","0 ATLAS 5 CENTAUR R/B","1 28473U 04048B   16013.59689786  .00000127  00000-0  00000+0 0  9998","2 28473  17.6254 197.2438 5743850  61.3448 345.1203  2.06079941 83369","2004-048B","28473","26084.230","698.757","34688.486","4723.704"
"GENERATED VIA SPACETRACK.ORG API","JSPOC","23731","INSAT 2C","PAYLOAD","U","95067B","2016-01-13 14:19:38","361792","0.99775847","0.0005577","11.4094","39.489","232.7868","311.12","0","999","7341","0","-4.4e-07","0","1980270","0 INSAT 2C","1 23731U 95067B   16013.59697178 -.00000044 +00000-0 +00000-0 0  9995","2 23731 011.4094 039.4890 0005577 232.7868 311.1200 00.99775847073419","1995-067B","23731","42304.336","1443.235","35949.795","35902.608"
"GENERATED VIA SPACETRACK.ORG API","JSPOC","18951","SPACENET 3R","PAYLOAD","U","88018A","2016-01-13 14:19:57","393984","0.99657037","0.0006102","13.1171","32.4425","198.3067","354.0376","0","999","8666","0","-4.1e-07","0","1980270","0 SPACENET 3R","1 18951U 88018A   16013.59719206 -.00000041 +00000-0 +00000-0 0  9995","2 18951 013.1171 032.4425 0006102 198.3067 354.0376 00.99657037086663","1988-018A","18951","42337.953","1444.955","35985.653","35933.983"
"GENERATED VIA SPACETRACK.ORG API","JSPOC","22723","HISPASAT 1B","PAYLOAD","U","93048A","2016-01-13 14:20:13","206912","0.99717458","0.0010398","10.1921","42.2832","203.2748","340.9885","0","999","8185","0","-5.2e-07","0","1979883","0 HISPASAT 1B","1 22723U 93048A   16013.59737508 -.00000052  00000-0  00000+0 0  9992","2 22723  10.1921  42.2832 0010398 203.2748 340.9885  0.99717458 81859","1993-048A","22723","42320.849","1444.080","35986.719","35898.709"
"GENERATED VIA SPACETRACK.ORG API","JSPOC","7946","DELTA 1 R/B","ROCKET BODY","U","75052B","2016-01-13 14:20:39","341184","13.53546782","0.004613","100.0401","245.4899","118.0791","271.3308","0","999","22000","5.503e-05","-9e-08","0","1980270","0 DELTA 1 R/B","1  7946U 75052B   16013.59767756 -.00000009 +00000-0 +55030-4 0  9995","2  7946 100.0401 245.4899 0046130 118.0791 271.3308 13.53546782220008","1975-052B","7946","7437.374","106.387","1093.548","1024.931"
"GENERATED VIA SPACETRACK.ORG API","JSPOC","11567","SL-12 R/B(2)","ROCKET BODY","U","74017F","2016-01-13 14:20:55","332960","1.0100532","0.0048781","9.3147","313.1916","320.4397","288.3052","0","999","15421","0","-6.7e-07","0","1980270","0 SL-12 R/B(2)","1 11567U 74017F   16013.59786265 -.00000067 +00000-0 +00000-0 0  9992","2 11567 009.3147 313.1916 0048781 320.4397 288.3052 01.01005320154219","1974-017F","11567","41960.340","1425.667","35786.892","35377.519"
"GENERATED VIA SPACETRACK.ORG API","JSPOC","1739","SCOUT X-4 R/B","ROCKET BODY","U","65093B","2016-01-13 14:21:00","141984","14.51101797","0.0079981","59.7059","66.1349","316.1188","43.3519","0","999","61728","9.4412e-05","2.31e-06","0","1980270","0 SCOUT X-4 R/B","1  1739U 65093B   16013.59791831 +.00000231 +00000-0 +94412-4 0  9997","2  1739 059.7059 066.1349 0079981 316.1188 043.3519 14.51101797617283","1965-093B","1739","7100.189","99.234","778.842","665.266"
"GENERATED VIA SPACETRACK.ORG API","JSPOC","19217","PAS 1","PAYLOAD","U","88051C","2016-01-13 14:21:00","539424","0.99387794","0.0006547","12.2306","36.2601","230.1576","148.8083","0","999","908","0","-5.2e-07","0","1980270","0 PAS 1","1 19217U 88051C   16013.59792291 -.00000052 +00000-0 +00000-0 0  9995","2 19217 012.2306 036.2601 0006547 230.1576 148.8083 00.99387794009085","1988-051C","19217","42414.381","1448.870","36064.015","36008.478"
"GENERATED VIA SPACETRACK.ORG API","JSPOC","25642","RADUGA 1-4","PAYLOAD","U","99010A","2016-01-13 14:21:00","539424","1.00350309","0.0006187","13.5205","37.2101","190.3523","188.3528","0","999","6177","0","-2.45e-06","0","1980270","0 RADUGA 1-4","1 25642U 99010A   16013.59792291 -.00000245 +00000-0 +00000-0 0  9995","2 25642 013.5205 037.2101 0006187 190.3523 188.3528 01.00350309061773","1999-010A","25642","42142.733","1434.973","35790.671","35738.524"
"GENERATED VIA SPACETRACK.ORG API","JSPOC","32301","BREEZE-M R/B","ROCKET BODY","U","07057C","2016-01-13 14:21:00","539424","1.90165048","0.5132995","17.0229","79.6902","245.1393","33.2239","0","999","5664","0","-1e-06","0","1980270","0 BREEZE-M R/B","1 32301U 07057C   16013.59792291 -.00000100 +00000-0 +00000-0 0  9995","2 32301 017.0229 079.6902 5132995 245.1393 033.2239 01.90165048056643","2007-057C","32301","27519.975","757.236","35267.830","7015.850"
